NORAD_CAT_ID,OBJECT_NAME,OBJECT_TYPE,EPOCH,MEAN_MOTION,ECCENTRICITY,INCLINATION,RA_OF_ASC_NODE,ARG_OF_PERICENTER,MEAN_ANOMALY,BSTAR,MEAN_MOTION_DOT,MEAN_MOTION_DDOT,TLE_LINE0,TLE_LINE1,TLE_LINE2,SEMIMAJOR_AXIS,PERIOD,APOGEE,PERIGEE,DECAYED
55398.0,STARLINK-5275,PAYLOAD,2024-08-20 14:43:57,14.98336607,0.0003096,70.0001,51.698,270.3117,89.7687,3.9707e-05,3.81e-06,0.0,0 STARLINK-5275,1 55398U 23014H   24233.61386107  .00000381  00000-0  39707-4 0  9998,2 55398  70.0001  51.6980 0003096 270.3117  89.7687 14.98336607 87263,6950.172,96.107,574.189,569.886,0.0
55398.0,STARLINK-5275,PAYLOAD,2024-08-21 13:09:51,14.98324338,0.0003141,70.0,49.3408,271.2884,88.7915,8.1046e-05,8.74e-06,0.0,0 STARLINK-5275,1 55398U 23014H   24234.54850736  .00000874  00000-0  81046-4 0  9995,2 55398  70.0000  49.3408 0003141 271.2884  88.7915 14.98324338 86465,6950.21,96.107,574.258,569.892,0.0
55398.0,STARLINK-5275,PAYLOAD,2024-08-21 14:45:59,14.98323946,0.0003152,69.9999,49.1726,271.0005,89.0793,7.3958e-05,7.89e-06,0.0,0 STARLINK-5275,1 55398U 23014H   24234.61526799  .00000789  00000-0  73958-4 0  9990,2 55398  69.9999  49.1726 0003152 271.0005  89.0793 14.98323946 87413,6950.212,96.107,574.267,569.886,0.0
55398.0,STARLINK-5275,PAYLOAD,2024-08-21 21:10:31,14.98325159,0.0003165,69.9999,48.499,271.4515,88.6281,7.1928e-05,7.65e-06,0.0,0 STARLINK-5275,1 55398U 23014H   24234.88230816  .00000765  00000-0  71928-4 0  9990,2 55398  69.9999  48.4990 0003165 271.4515  88.6281 14.98325159 87451,6950.208,96.107,574.273,569.873,0.0
